{"type": "FeatureCollection", "features": [ {"type": "Feature", "properties": {"norad_id": 37331, "name": "COSMOS 2251 DEB", "group": "cosmos-2251-debris", "lat": -61.247876668727876, "lon": -76.20182842620062, "alt_km": 818.2414979458927, "timestamp": "2025-12-10T05:46:14.224334+00:00", "meta": {"OBJECT_NAME": "COSMOS 2251 DEB", "OBJECT_ID": "1993-036BKX", "EPOCH": "2025-12-08T12:28:40.679328", "MEAN_MOTION": 14.35004102, "ECCENTRICITY": 0.0054894, "INCLINATION": 74.0752, "RA_OF_ASC_NODE": 75.5859, "ARG_OF_PERICENTER": 91.1646, "MEAN_ANOMALY": 269.5796, "EPHEMERIS_TYPE": 0, "CLASSIFICATION_TYPE": "U", "NORAD_CAT_ID": 37331, "ELEMENT_SET_NO": 999, "REV_AT_EPOCH": 84699, "BSTAR": 0.00094274204, "MEAN_MOTION_DOT": 2.707e-05, "MEAN_MOTION_DDOT": 0}, "tle": {"line1": "1 37331U 93036BKX 25342.51991527  .00002707  00000+0  94274-3 0  9997", "line2": "2 37331  74.0752  75.5859 0054894  91.1646 269.5796 14.35004102846990"}}, "geometry": {"type": "Point", "coordinates": [-76.20182842620062, -61.247876668727876]}}, {"type": "Feature", "properties": {"norad_id": 37336, "name": "COSMOS 2251 DEB", "group": "cosmos-2251-debris", "lat": -61.61123291329015, "lon": -172.25272131150157, "alt_km": 809.4944153232136, "timestamp": "2025-12-10T05:46:14.224344+00:00", "meta": {"OBJECT_NAME": "COSMOS 2251 DEB", "OBJECT_ID": "1993-036BLC", "EPOCH": "2025-12-09T16:53:45.179232", "MEAN_MOTION": 14.32756828, "ECCENTRICITY": 0.0028757, "INCLINATION": 74.0407, "RA_OF_ASC_NODE": 336.7551, "ARG_OF_PERICENTER": 55.3677, "MEAN_ANOMALY": 305.0179, "EPHEMERIS_TYPE": 0, "CLASSIFICATION_TYPE": "U", "NORAD_CAT_ID": 37336, "ELEMENT_SET_NO": 999, "REV_AT_EPOCH": 65076, "BSTAR": 0.00013225, "MEAN_MOTION_DOT": 3.36e-06, "MEAN_MOTION_DDOT": 0}, "tle": {"line1": "1 37336U 93036BLC 25343.70399513  .00000336  00000+0  13225-3 0  9994", "line2": "2 37336  74.0407 336.7551 0028757  55.3677 305.0179 14.32756828650763"}}, "geometry": {"type": "Point", "coordinates": [-172.25272131150157, -61.61123291329015]}}, {"type": "Feature", "properties": {"norad_id": 37340, "name": "COSMOS 2251 DEB", "group": "cosmos-2251-debris", "lat": 63.90431858804033, "lon": -42.45555628184603, "alt_km": 754.3069859515736, "timestamp": "2025-12-10T05:46:14.224354+00:00", "meta": {"OBJECT_NAME": "COSMOS 2251 DEB", "OBJECT_ID": "1993-036BLG", "EPOCH": "2025-12-09T04:23:15.351648", "MEAN_MOTION": 14.36915689, "ECCENTRICITY": 0.00176046, "INCLINATION": 74.0253, "RA_OF_ASC_NODE": 283.6981, "ARG_OF_PERICENTER": 19.5948, "MEAN_ANOMALY": 340.5878, "EPHEMERIS_TYPE": 0, "CLASSIFICATION_TYPE": "U", "NORAD_CAT_ID": 37340, "ELEMENT_SET_NO": 999, "REV_AT_EPOCH": 84016, "BSTAR": 0.00031830521, "MEAN_MOTION_DOT": 9.17e-06, "MEAN_MOTION_DDOT": 0}, "tle": {"line1": "1 37340U 93036BLG 25343.18281657  .00000917  00000+0  31831-3 0  9998", "line2": "2 37340  74.0253 283.6981 0017604  19.5948 340.5878 14.36915689840167"}}, "geometry": {"type": "Point", "coordinates": [-42.45555628184603, 63.90431858804033]}}, {"type": "Feature", "properties": {"norad_id": 37483, "name": "COSMOS 2251 DEB", "group": "cosmos-2251-debris", "lat": 53.79364139074574, "lon": -55.12168421782647, "alt_km": 781.5667099384664, "timestamp": "2025-12-10T05:46:14.224364+00:00", "meta": {"OBJECT_NAME": "COSMOS 2251 DEB", "OBJECT_ID": "1993-036BLL", "EPOCH": "2025-12-09T17:33:52.143264", "MEAN_MOTION": 14.43549902, "ECCENTRICITY": 0.0092962, "INCLINATION": 73.9727, "RA_OF_ASC_NODE": 148.9468, "ARG_OF_PERICENTER": 356.1236, "MEAN_ANOMALY": 3.9188, "EPHEMERIS_TYPE": 0, "CLASSIFICATION_TYPE": "U", "NORAD_CAT_ID": 37483, "ELEMENT_SET_NO": 999, "REV_AT_EPOCH": 65236, "BSTAR": 0.00034624, "MEAN_MOTION_DOT": 1.207e-05, "MEAN_MOTION_DDOT": 0}, "tle": {"line1": "1 37483U 93036BLL 25343.73185351  .00001207  00000+0  34624-3 0  9997", "line2": "2 37483  73.9727 148.9468 0092962 356.1236   3.9188 14.43549902652368"}}, "geometry": {"type": "Point", "coordinates": [-55.12168421782647, 53.79364139074574]}}, {"type": "Feature", "properties": {"norad_id": 37484, "name": "COSMOS 2251 DEB", "group": "cosmos-2251-debris", "lat": 25.77124811816053, "lon": -138.81081341440984, "alt_km": 772.8131005228779, "timestamp": "2025-12-10T05:46:14.224374+00:00", "meta": {"OBJECT_NAME": "COSMOS 2251 DEB", "OBJECT_ID": "1993-036BLM", "EPOCH": "2025-12-08T23:58:05.079360", "MEAN_MOTION": 14.41757676, "ECCENTRICITY": 0.0040001, "INCLINATION": 73.8236, "RA_OF_ASC_NODE": 215.4631, "ARG_OF_PERICENTER": 250.9229, "MEAN_ANOMALY": 173.1342, "EPHEMERIS_TYPE": 0, "CLASSIFICATION_TYPE": "U", "NORAD_CAT_ID": 37484, "ELEMENT_SET_NO": 999, "REV_AT_EPOCH": 65325, "BSTAR": 0.00081064, "MEAN_MOTION_DOT": 2.644e-05, "MEAN_MOTION_DDOT": 0}, "tle": {"line1": "1 37484U 93036BLM 25342.99866990  .00002644  00000+0  81064-3 0  9996", "line2": "2 37484  73.8236 215.4631 0040001 250.9229 173.1342 14.41757676653253"}}, "geometry": {"type": "Point", "coordinates": [-138.81081341440984, 25.77124811816053]}}, {"type": "Feature", "properties": {"norad_id": 37486, "name": "COSMOS 2251 DEB", "group": "cosmos-2251-debris", "lat": -1.118734514877389, "lon": -60.5545986619238, "alt_km": 1011.7635599283949, "timestamp": "2025-12-10T05:46:14.224384+00:00", "meta": {"OBJECT_NAME": "COSMOS 2251 DEB", "OBJECT_ID": "1993-036BLP", "EPOCH": "2025-12-08T15:36:14.085792", "MEAN_MOTION": 14.13268533, "ECCENTRICITY": 0.0229186, "INCLINATION": 73.6904, "RA_OF_ASC_NODE": 121.9918, "ARG_OF_PERICENTER": 350.7921, "MEAN_ANOMALY": 22.951, "EPHEMERIS_TYPE": 0, "CLASSIFICATION_TYPE": "U", "NORAD_CAT_ID": 37486, "ELEMENT_SET_NO": 999, "REV_AT_EPOCH": 63312, "BSTAR": 0.0028521, "MEAN_MOTION_DOT": 6.844e-05, "MEAN_MOTION_DDOT": 0}, "tle": {"line1": "1 37486U 93036BLP 25342.65016303  .00006844  00000+0  28521-2 0  9990", "line2": "2 37486  73.6904 121.9918 0229186 350.7921  22.9510 14.13268533633125"}}, "geometry": {"type": "Point", "coordinates": [-60.5545986619238, -1.118734514877389]}}, {"type": "Feature", "properties": {"norad_id": 37487, "name": "COSMOS 2251 DEB", "group": "cosmos-2251-debris", "lat": 25.488678199118535, "lon": -155.02705831104743, "alt_km": 608.084245101596, "timestamp": "2025-12-10T05:46:14.224394+00:00", "meta": {"OBJECT_NAME": "COSMOS 2251 DEB", "OBJECT_ID": "1993-036BLQ", "EPOCH": "2025-12-08T08:15:02.962656", "MEAN_MOTION": 14.80724643, "ECCENTRICITY": 0.00253468, "INCLINATION": 73.9018, "RA_OF_ASC_NODE": 200.8288, "ARG_OF_PERICENTER": 39.8809, "MEAN_ANOMALY": 320.4223, "EPHEMERIS_TYPE": 0, "CLASSIFICATION_TYPE": "U", "NORAD_CAT_ID": 37487, "ELEMENT_SET_NO": 999, "REV_AT_EPOCH": 81180, "BSTAR": 0.0030271711, "MEAN_MOTION_DOT": 0.00023476, "MEAN_MOTION_DDOT": 0}, "tle": {"line1": "1 37487U 93036BLQ 25342.34378429  .00023476  00000+0  30272-2 0  9993", "line2": "2 37487  73.9018 200.8288 0025346  39.8809 320.4223 14.80724643811807"}}, "geometry": {"type": "Point", "coordinates": [-155.02705831104743, 25.488678199118535]}}, {"type": "Feature", "properties": {"norad_id": 37491, "name": "COSMOS 2251 DEB", "group": "cosmos-2251-debris", "lat": 18.922122128555262, "lon": -76.03686644722276, "alt_km": 1046.0809540338978, "timestamp": "2025-12-10T05:46:14.224404+00:00", "meta": {"OBJECT_NAME": "COSMOS 2251 DEB", "OBJECT_ID": "1993-036BLU", "EPOCH": "2025-12-08T13:31:18.637824", "MEAN_MOTION": 13.75270831, "ECCENTRICITY": 0.0317693, "INCLINATION": 73.9064, "RA_OF_ASC_NODE": 281.0937, "ARG_OF_PERICENTER": 274.9147, "MEAN_ANOMALY": 81.5777, "EPHEMERIS_TYPE": 0, "CLASSIFICATION_TYPE": "U", "NORAD_CAT_ID": 37491, "ELEMENT_SET_NO": 999, "REV_AT_EPOCH": 55689, "BSTAR": 0.0022883, "MEAN_MOTION_DOT": 3.145e-05, "MEAN_MOTION_DDOT": 0}, "tle": {"line1": "1 37491U 93036BLU 25342.56341016  .00003145  00000+0  22883-2 0  9994", "line2": "2 37491  73.9064 281.0937 0317693 274.9147  81.5777 13.75270831556893"}}, "geometry": {"type": "Point", "coordinates": [-76.03686644722276, 18.922122128555262]}}, {"type": "Feature", "properties": {"norad_id": 37498, "name": "COSMOS 2251 DEB", "group": "cosmos-2251-debris", "lat": 63.88535873648199, "lon": -135.6545709779962, "alt_km": 713.1339899450386, "timestamp": "2025-12-10T05:46:14.224414+00:00", "meta": {"OBJECT_NAME": "COSMOS 2251 DEB", "OBJECT_ID": "1993-036BMB", "EPOCH": "2025-12-02T07:38:53.705760", "MEAN_MOTION": 14.54689112, "ECCENTRICITY": 0.00134342, "INCLINATION": 74.038, "RA_OF_ASC_NODE": 203.6034, "ARG_OF_PERICENTER": 264.7495, "MEAN_ANOMALY": 95.2135, "EPHEMERIS_TYPE": 0, "CLASSIFICATION_TYPE": "U", "NORAD_CAT_ID": 37498, "ELEMENT_SET_NO": 999, "REV_AT_EPOCH": 65203, "BSTAR": 0.00080152077, "MEAN_MOTION_DOT": 3.406e-05, "MEAN_MOTION_DDOT": 0}, "tle": {"line1": "1 37498U 93036BMB 25336.31867715  .00003406  00000+0  80152-3 0  9990", "line2": "2 37498  74.0380 203.6034 0013434 264.7495  95.2135 14.54689112652037"}}, "geometry": {"type": "Point", "coordinates": [-135.6545709779962, 63.88535873648199]}}, {"type": "Feature", "properties": {"norad_id": 37499, "name": "COSMOS 2251 DEB", "group": "cosmos-2251-debris", "lat": 68.0037211203712, "lon": 101.64960152530433, "alt_km": 761.1640443484266, "timestamp": "2025-12-10T05:46:14.224424+00:00", "meta": {"OBJECT_NAME": "COSMOS 2251 DEB", "OBJECT_ID": "1993-036BMC", "EPOCH": "2025-12-08T23:09:11.819232", "MEAN_MOTION": 14.34336218, "ECCENTRICITY": 0.00267882, "INCLINATION": 74.0376, "RA_OF_ASC_NODE": 329.1013, "ARG_OF_PERICENTER": 46.2622, "MEAN_ANOMALY": 314.0742, "EPHEMERIS_TYPE": 0, "CLASSIFICATION_TYPE": "U", "NORAD_CAT_ID": 37499, "ELEMENT_SET_NO": 999, "REV_AT_EPOCH": 85095, "BSTAR": 0.00024772598, "MEAN_MOTION_DOT": 6.73e-06, "MEAN_MOTION_DDOT": 0}, "tle": {"line1": "1 37499U 93036BMC 25342.96472013  .00000673  00000+0  24773-3 0  9992", "line2": "2 37499  74.0376 329.1013 0026788  46.2622 314.0742 14.34336218850956"}}, "geometry": {"type": "Point", "coordinates": [101.64960152530433, 68.0037211203712]}}]}